{"type": "FeatureCollection", "features": [ {"type": "Feature", "properties": {"norad_id": 38779, "name": "GSAT-10 (GAGAN/PRN 128)", "group": "gnss", "lat": 0.0721984913764878, "lon": 44.98543922616444, "alt_km": 35784.35789887267, "timestamp": "2025-12-16T15:45:51.287517+00:00", "meta": {"OBJECT_NAME": "GSAT-10 (GAGAN/PRN 128)", "OBJECT_ID": "2012-051B", "EPOCH": "2025-12-15T18:15:38.450016", "MEAN_MOTION": 1.00272901, "ECCENTRICITY": 0.00024981, "INCLINATION": 0.0827, "RA_OF_ASC_NODE": 266.091, "ARG_OF_PERICENTER": 221.2869, "MEAN_ANOMALY": 314.2077, "EPHEMERIS_TYPE": 0, "CLASSIFICATION_TYPE": "U", "NORAD_CAT_ID": 38779, "ELEMENT_SET_NO": 999, "REV_AT_EPOCH": 4826, "BSTAR": 0, "MEAN_MOTION_DOT": -1.43e-06, "MEAN_MOTION_DDOT": 0}, "tle": {"line1": "1 38779U 12051B   25349.76086169 -.00000143  00000+0  00000+0 0  9996", "line2": "2 38779   0.0827 266.0910 0002498 221.2869 314.2077  1.00272901 48266"}}, "geometry": {"type": "Point", "coordinates": [44.98543922616444, 0.0721984913764878]}}, {"type": "Feature", "properties": {"norad_id": 38833, "name": "GPS BIIF-3  (PRN 24)", "group": "gnss", "lat": -38.2036240478891, "lon": 6.63792070405668, "alt_km": 20639.73185360589, "timestamp": "2025-12-16T15:45:51.287529+00:00", "meta": {"OBJECT_NAME": "GPS BIIF-3  (PRN 24)", "OBJECT_ID": "2012-053A", "EPOCH": "2025-12-14T20:17:27.870144", "MEAN_MOTION": 2.00565059, "ECCENTRICITY": 0.01759136, "INCLINATION": 53.558, "RA_OF_ASC_NODE": 151.1523, "ARG_OF_PERICENTER": 64.0191, "MEAN_ANOMALY": 297.785, "EPHEMERIS_TYPE": 0, "CLASSIFICATION_TYPE": "U", "NORAD_CAT_ID": 38833, "ELEMENT_SET_NO": 999, "REV_AT_EPOCH": 9574, "BSTAR": 0, "MEAN_MOTION_DOT": 8.8e-07, "MEAN_MOTION_DDOT": 0}, "tle": {"line1": "1 38833U 12053A   25348.84546146  .00000088  00000+0  00000+0 0  9990", "line2": "2 38833  53.5580 151.1523 0175913  64.0191 297.7850  2.00565059 95743"}}, "geometry": {"type": "Point", "coordinates": [6.63792070405668, -38.2036240478891]}}, {"type": "Feature", "properties": {"norad_id": 38857, "name": "GSAT0103 (GALILEO-FM3)", "group": "gnss", "lat": 45.395439956729774, "lon": -117.20499521435383, "alt_km": 23223.589762118776, "timestamp": "2025-12-16T15:45:51.287540+00:00", "meta": {"OBJECT_NAME": "GSAT0103 (GALILEO-FM3)", "OBJECT_ID": "2012-055A", "EPOCH": "2025-12-13T12:39:44.093088", "MEAN_MOTION": 1.70473367, "ECCENTRICITY": 0.00026827, "INCLINATION": 55.6929, "RA_OF_ASC_NODE": 106.6448, "ARG_OF_PERICENTER": 268.8486, "MEAN_ANOMALY": 91.0883, "EPHEMERIS_TYPE": 0, "CLASSIFICATION_TYPE": "U", "NORAD_CAT_ID": 38857, "ELEMENT_SET_NO": 999, "REV_AT_EPOCH": 8184, "BSTAR": 0, "MEAN_MOTION_DOT": 1e-08, "MEAN_MOTION_DDOT": 0}, "tle": {"line1": "1 38857U 12055A   25347.52759367  .00000001  00000+0  00000+0 0  9998", "line2": "2 38857  55.6929 106.6448 0002682 268.8486  91.0883  1.70473367 81846"}}, "geometry": {"type": "Point", "coordinates": [-117.20499521435383, 45.395439956729774]}}, {"type": "Feature", "properties": {"norad_id": 38953, "name": "BEIDOU-2 G6 (C02)", "group": "gnss", "lat": -1.923039655876291, "lon": 46.09828474211869, "alt_km": 35761.03851159213, "timestamp": "2025-12-16T15:45:51.287553+00:00", "meta": {"OBJECT_NAME": "BEIDOU-2 G6 (C02)", "OBJECT_ID": "2012-059A", "EPOCH": "2025-12-15T20:38:09.573792", "MEAN_MOTION": 1.00269594, "ECCENTRICITY": 0.00080079, "INCLINATION": 3.9573, "RA_OF_ASC_NODE": 75.4759, "ARG_OF_PERICENTER": 290.8885, "MEAN_ANOMALY": 111.922, "EPHEMERIS_TYPE": 0, "CLASSIFICATION_TYPE": "U", "NORAD_CAT_ID": 38953, "ELEMENT_SET_NO": 999, "REV_AT_EPOCH": 4807, "BSTAR": 0, "MEAN_MOTION_DOT": -1.55e-06, "MEAN_MOTION_DDOT": 0}, "tle": {"line1": "1 38953U 12059A   25349.85983303 -.00000155  00000+0  00000+0 0  9997", "line2": "2 38953   3.9573  75.4759 0008007 290.8885 111.9220  1.00269594 48070"}}, "geometry": {"type": "Point", "coordinates": [46.09828474211869, -1.923039655876291]}}, {"type": "Feature", "properties": {"norad_id": 38977, "name": "LUCH 5B (SDCM/PRN 125)", "group": "gnss", "lat": -9.715195670726331, "lon": -54.49549758915991, "alt_km": 35772.5726480428, "timestamp": "2025-12-16T15:45:51.287566+00:00", "meta": {"OBJECT_NAME": "LUCH 5B (SDCM/PRN 125)", "OBJECT_ID": "2012-061A", "EPOCH": "2025-12-15T21:52:17.476032", "MEAN_MOTION": 1.00272429, "ECCENTRICITY": 0.00068682, "INCLINATION": 10.0883, "RA_OF_ASC_NODE": 51.6762, "ARG_OF_PERICENTER": 194.0686, "MEAN_ANOMALY": 150.8019, "EPHEMERIS_TYPE": 0, "CLASSIFICATION_TYPE": "U", "NORAD_CAT_ID": 38977, "ELEMENT_SET_NO": 999, "REV_AT_EPOCH": 4776, "BSTAR": 0, "MEAN_MOTION_DOT": -1.23e-06, "MEAN_MOTION_DDOT": 0}, "tle": {"line1": "1 38977U 12061A   25349.91131338 -.00000123  00000+0  00000+0 0  9991", "line2": "2 38977  10.0883  51.6762 0006868 194.0686 150.8019  1.00272429 47760"}}, "geometry": {"type": "Point", "coordinates": [-54.49549758915991, -9.715195670726331]}}, {"type": "Feature", "properties": {"norad_id": 39155, "name": "COSMOS 2485 (747)", "group": "gnss", "lat": -36.72219490252928, "lon": -80.2284037208905, "alt_km": 19072.33739279773, "timestamp": "2025-12-16T15:45:51.287579+00:00", "meta": {"OBJECT_NAME": "COSMOS 2485 (747)", "OBJECT_ID": "2013-019A", "EPOCH": "2025-12-13T13:15:58.678272", "MEAN_MOTION": 2.13102947, "ECCENTRICITY": 0.00246467, "INCLINATION": 65.3142, "RA_OF_ASC_NODE": 79.8396, "ARG_OF_PERICENTER": 229.7128, "MEAN_ANOMALY": 130.0848, "EPHEMERIS_TYPE": 0, "CLASSIFICATION_TYPE": "U", "NORAD_CAT_ID": 39155, "ELEMENT_SET_NO": 999, "REV_AT_EPOCH": 9832, "BSTAR": 0, "MEAN_MOTION_DOT": -4.8e-07, "MEAN_MOTION_DDOT": 0}, "tle": {"line1": "1 39155U 13019A   25347.55276248 -.00000048  00000+0  00000+0 0  9998", "line2": "2 39155  65.3142  79.8396 0024646 229.7128 130.0848  2.13102947 98326"}}, "geometry": {"type": "Point", "coordinates": [-80.2284037208905, -36.72219490252928]}}, {"type": "Feature", "properties": {"norad_id": 39166, "name": "GPS BIIF-4  (PRN 27)", "group": "gnss", "lat": -27.343390590701517, "lon": -105.10888973945868, "alt_km": 20134.438893818977, "timestamp": "2025-12-16T15:45:51.287590+00:00", "meta": {"OBJECT_NAME": "GPS BIIF-4  (PRN 27)", "OBJECT_ID": "2013-023A", "EPOCH": "2025-12-15T04:59:33.811872", "MEAN_MOTION": 2.00564736, "ECCENTRICITY": 0.01378529, "INCLINATION": 54.65, "RA_OF_ASC_NODE": 276.4679, "ARG_OF_PERICENTER": 48.4851, "MEAN_ANOMALY": 312.7012, "EPHEMERIS_TYPE": 0, "CLASSIFICATION_TYPE": "U", "NORAD_CAT_ID": 39166, "ELEMENT_SET_NO": 999, "REV_AT_EPOCH": 9219, "BSTAR": 0, "MEAN_MOTION_DOT": -6.8e-07, "MEAN_MOTION_DDOT": 0}, "tle": {"line1": "1 39166U 13023A   25349.20803023 -.00000068  00000+0  00000+0 0  9998", "line2": "2 39166  54.6500 276.4679 0137852  48.4851 312.7012  2.00564736 92194"}}, "geometry": {"type": "Point", "coordinates": [-105.10888973945868, -27.343390590701517]}}, {"type": "Feature", "properties": {"norad_id": 39199, "name": "IRNSS-1A", "group": "gnss", "lat": -26.023870616199662, "lon": 22.98525804497872, "alt_km": 35814.91563559972, "timestamp": "2025-12-16T15:45:51.287603+00:00", "meta": {"OBJECT_NAME": "IRNSS-1A", "OBJECT_ID": "2013-034A", "EPOCH": "2025-12-15T18:47:23.098272", "MEAN_MOTION": 1.00271584, "ECCENTRICITY": 0.00231703, "INCLINATION": 35.3101, "RA_OF_ASC_NODE": 66.5101, "ARG_OF_PERICENTER": 205.6555, "MEAN_ANOMALY": 149.256, "EPHEMERIS_TYPE": 0, "CLASSIFICATION_TYPE": "U", "NORAD_CAT_ID": 39199, "ELEMENT_SET_NO": 999, "REV_AT_EPOCH": 4552, "BSTAR": 0, "MEAN_MOTION_DOT": 6.4e-07, "MEAN_MOTION_DDOT": 0}, "tle": {"line1": "1 39199U 13034A   25349.78290623  .00000064  00000+0  00000+0 0  9990", "line2": "2 39199  35.3101  66.5101 0023170 205.6555 149.2560  1.00271584 45527"}}, "geometry": {"type": "Point", "coordinates": [22.98525804497872, -26.023870616199662]}}, {"type": "Feature", "properties": {"norad_id": 39533, "name": "GPS BIIF-5  (PRN 30)", "group": "gnss", "lat": -23.095029517818677, "lon": 138.43340498775802, "alt_km": 20234.572762343752, "timestamp": "2025-12-16T15:45:51.287615+00:00", "meta": {"OBJECT_NAME": "GPS BIIF-5  (PRN 30)", "OBJECT_ID": "2014-008A", "EPOCH": "2025-12-15T16:48:38.811744", "MEAN_MOTION": 2.00574628, "ECCENTRICITY": 0.00792998, "INCLINATION": 53.6317, "RA_OF_ASC_NODE": 156.8039, "ARG_OF_PERICENTER": 226.551, "MEAN_ANOMALY": 132.7971, "EPHEMERIS_TYPE": 0, "CLASSIFICATION_TYPE": "U", "NORAD_CAT_ID": 39533, "ELEMENT_SET_NO": 999, "REV_AT_EPOCH": 8600, "BSTAR": 0, "MEAN_MOTION_DOT": 9e-07, "MEAN_MOTION_DDOT": 0}, "tle": {"line1": "1 39533U 14008A   25349.70044921  .00000090  00000+0  00000+0 0  9993", "line2": "2 39533  53.6317 156.8039 0079299 226.5510 132.7971  2.00574628 86007"}}, "geometry": {"type": "Point", "coordinates": [138.43340498775802, -23.095029517818677]}}, {"type": "Feature", "properties": {"norad_id": 39617, "name": "ASTRA 5B (EGNOS/PRN 123)", "group": "gnss", "lat": -0.054439852980064804, "lon": -14.44738606792917, "alt_km": 35781.314766547475, "timestamp": "2025-12-16T15:45:51.287626+00:00", "meta": {"OBJECT_NAME": "ASTRA 5B (EGNOS/PRN 123)", "OBJECT_ID": "2014-011B", "EPOCH": "2025-12-15T22:03:38.887776", "MEAN_MOTION": 1.00274214, "ECCENTRICITY": 0.00042211, "INCLINATION": 0.0668, "RA_OF_ASC_NODE": 43.743, "ARG_OF_PERICENTER": 224.7979, "MEAN_ANOMALY": 170.6904, "EPHEMERIS_TYPE": 0, "CLASSIFICATION_TYPE": "U", "NORAD_CAT_ID": 39617, "ELEMENT_SET_NO": 999, "REV_AT_EPOCH": 4283, "BSTAR": 0, "MEAN_MOTION_DOT": 1.6e-06, "MEAN_MOTION_DDOT": 0}, "tle": {"line1": "1 39617U 14011B   25349.91920009  .00000160  00000+0  00000+0 0  9991", "line2": "2 39617   0.0668  43.7430 0004221 224.7979 170.6904  1.00274214 42833"}}, "geometry": {"type": "Point", "coordinates": [-14.44738606792917, -0.054439852980064804]}}]}